NORAD_CAT_ID,OBJECT_NAME,OBJECT_TYPE,EPOCH,MEAN_MOTION,ECCENTRICITY,INCLINATION,RA_OF_ASC_NODE,ARG_OF_PERICENTER,MEAN_ANOMALY,BSTAR,MEAN_MOTION_DOT,MEAN_MOTION_DDOT,TLE_LINE0,TLE_LINE1,TLE_LINE2,SEMIMAJOR_AXIS,PERIOD,APOGEE,PERIGEE,DECAYED
53020.0,STARLINK-4287,PAYLOAD,2022-08-14 22:00:00,15.7320938,0.0001798,53.2187,189.6886,26.0461,163.4269,-7.4255e-05,-0.00011033,0.0,0 STARLINK-4287,1 53020U 22076AL  22226.91667824 -.00011033  00000-0 -74255-4 0  9991,2 53020  53.2187 189.6886 0001798  26.0461 163.4269 15.73209380  1301,6727.868,91.533,350.9430000000001,348.524,0.0
53020.0,STARLINK-4287,PAYLOAD,2022-08-15 06:00:00,15.73156989,0.0002125,53.2184,188.0413,26.0248,252.3851,3.953e-05,4.92e-05,0.0,0 STARLINK-4287,1 53020U 22076AL  22227.25001157  .00004920  00000-0  39530-4 0  9992,2 53020  53.2184 188.0413 0002125  26.0248 252.3851 15.73156989  6592,6728.018,91.536,351.31300000000016,348.45300000000015,0.0
53020.0,STARLINK-4287,PAYLOAD,2022-08-15 14:00:01,15.73182367,0.0001945,53.2182,186.3906,27.9449,339.3477,9.821e-05,0.00013174,0.0,0 STARLINK-4287,1 53020U 22076AL  22227.58334491  .00013174  00000-0  98210-4 0  9999,2 53020  53.2182 186.3906 0001945  27.9449 339.3477 15.73182367  1303,6727.945,91.534,351.119,348.50199999999984,0.0
53020.0,STARLINK-4287,PAYLOAD,2022-08-15 22:00:00,15.73225165,0.0001835,53.2185,184.7406,30.9235,65.2675,-0.00020693,-0.00029593,0.0,0 STARLINK-4287,1 53020U 22076AL  22227.91667824 -.00029593  00000-0 -20693-3 0  9998,2 53020  53.2185 184.7406 0001835  30.9235  65.2675 15.73225165  1307,6727.823,91.532,350.923,348.454,0.0
53020.0,STARLINK-4287,PAYLOAD,2022-08-16 00:00:00,15.73244775,0.0001843,53.2186,184.3289,29.0171,179.4056,-0.00061407,-0.00086095,0.0,0 STARLINK-4287,1 53020U 22076AL  22228.00001157 -.00086095  00000-0 -61407-3 0  9998,2 53020  53.2186 184.3289 0001843  29.0171 179.4056 15.73244775  6719,6727.768,91.531,350.872,348.39300000000014,0.0
53020.0,STARLINK-4287,PAYLOAD,2022-08-16 14:00:01,15.73212228,0.0001875,53.2184,181.4425,24.3295,249.7234,0.00013382,0.00018211,0.0,0 STARLINK-4287,1 53020U 22076AL  22228.58334491  .00018211  00000-0  13382-3 0  9993,2 53020  53.2184 181.4425 0001875  24.3295 249.7234 15.73212228  6804,6727.86,91.532,350.987,348.464,0.0
53020.0,STARLINK-4287,PAYLOAD,2022-08-16 22:00:00,15.73275816,0.0001841,53.2184,179.7928,29.1361,333.8552,-0.00039648,-0.00056078,0.0,0 STARLINK-4287,1 53020U 22076AL  22228.91667824 -.00056078  00000-0 -39648-3 0  9997,2 53020  53.2184 179.7928 0001841  29.1361 333.8552 15.73275816  1302,6727.679,91.529,350.783,348.305,0.0
53020.0,STARLINK-4287,PAYLOAD,2022-08-17 06:00:02,15.732048,0.0002092,53.2179,178.1453,28.1631,63.8748,-0.00015997,-0.00023017,0.0,0 STARLINK-4287,1 53020U 22076AL  22229.25002315 -.00023017  00000-0 -15997-3 0  9991,2 53020  53.2179 178.1453 0002092  28.1631  63.8748 15.73204800  6903,6727.880999999999,91.533,351.154,348.339,0.0
53020.0,STARLINK-4287,PAYLOAD,2022-08-17 14:00:01,15.73171728,0.0001821,53.2177,176.4943,25.3356,155.5627,-3.1951e-05,-5.097e-05,0.0,0 STARLINK-4287,1 53020U 22076AL  22229.58334491 -.00005097  00000-0 -31951-4 0  9997,2 53020  53.2177 176.4943 0001821  25.3356 155.5627 15.73171728  1304,6727.976,91.535,351.066,348.616,0.0
53020.0,STARLINK-4287,PAYLOAD,2022-08-18 08:00:01,15.7324618,0.0002032999999999,53.2176,172.7847,27.5578,83.4135,4.1363e-05,5.199e-05,0.0,0 STARLINK-4287,1 53020U 22076AL  22230.33334491  .00005199  00000-0  41363-4 0  9991,2 53020  53.2176 172.7847 0002033  27.5578  83.4135 15.73246180  7079,6727.764,91.53,350.996,348.261,0.0
53020.0,STARLINK-4287,PAYLOAD,2022-08-18 14:00:01,15.73222864,0.0001857,53.2178,171.5459,31.2356,56.4901,0.00017864,0.00024549,0.0,0 STARLINK-4287,1 53020U 22076AL  22230.58334491  .00024549  00000-0  17864-3 0  9996,2 53020  53.2178 171.5459 0001857  31.2356  56.4901 15.73222864  1300,6727.83,91.532,350.944,348.446,0.0
53020.0,STARLINK-4287,PAYLOAD,2022-08-18 22:00:00,15.73280979,0.0001788,53.2177,169.8965,33.7696,142.9135,-0.00058341,-0.00081992,0.0,0 STARLINK-4287,1 53020U 22076AL  22230.91667824 -.00081992  00000-0 -58341-3 0  9994,2 53020  53.2177 169.8965 0001788  33.7696 142.9135 15.73280979  1309,6727.6640000000025,91.528,350.732,348.326,0.0
53020.0,STARLINK-4287,PAYLOAD,2022-08-19 06:00:00,15.73218136,0.0001994,53.2169,168.2453,26.166,239.5131,-0.00067289,-0.00094089,0.0,0 STARLINK-4287,1 53020U 22076AL  22231.25001157 -.00094089  00000-0 -67289-3 0  9995,2 53020  53.2169 168.2453 0001994  26.1660 239.5131 15.73218136  7223,6727.843000000003,91.532,351.05,348.367,0.0
53020.0,STARLINK-4287,PAYLOAD,2022-08-19 14:00:01,15.73118218,0.0001756,53.2169,166.5974,33.2098,321.3938,0.00021902,0.00030121,0.0,0 STARLINK-4287,1 53020U 22076AL  22231.58334491  .00030121  00000-0  21902-3 0  9998,2 53020  53.2169 166.5974 0001756  33.2098 321.3938 15.73118218  1300,6728.128000000002,91.538,351.175,348.81199999999984,0.0
53020.0,STARLINK-4287,PAYLOAD,2022-08-19 20:00:01,15.73127993,0.0001744,53.2172,165.3601,36.9575,294.263,0.00047438,0.00066278,0.0,0 STARLINK-4287,1 53020U 22076AL  22231.83334491  .00066278  00000-0  47438-3 0  9990,2 53020  53.2172 165.3601 0001744  36.9575 294.2630 15.73127993  7319,6728.1,91.537,351.139,348.792,0.0
53020.0,STARLINK-4287,PAYLOAD,2022-08-20 08:00:01,15.73171077,0.0001943999999999,53.217,162.8881,27.8574,256.646,0.00021062,0.00029005,0.0,0 STARLINK-4287,1 53020U 22076AL  22232.33334491  .00029005  00000-0  21062-3 0  9998,2 53020  53.2170 162.8881 0001944  27.8574 256.6460 15.73171077  7392,6727.978,91.535,351.151,348.535,0.0
53020.0,STARLINK-4287,PAYLOAD,2022-08-20 14:00:01,15.73195282,0.0001730999999999,53.2174,161.6495,30.0245,231.1741,-0.0002901,-0.00041129,0.0,0 STARLINK-4287,1 53020U 22076AL  22232.58334491 -.00041129  00000-0 -29010-3 0  9999,2 53020  53.2174 161.6495 0001731  30.0245 231.1741 15.73195282  1308,6727.909000000002,91.533,350.93800000000016,348.6090000000001,0.0
53020.0,STARLINK-4287,PAYLOAD,2022-08-20 22:00:00,15.73192801,0.0001696,53.2173,160.0005,29.4101,320.6934,0.00010205,0.00013721,0.0,0 STARLINK-4287,1 53020U 22076AL  22232.91667824  .00013721  00000-0  10205-3 0  9996,2 53020  53.2173 160.0005 0001696  29.4101 320.6934 15.73192801  1302,6727.916,91.534,350.922,348.64,0.0
53020.0,STARLINK-4287,PAYLOAD,2022-08-21 06:00:00,15.73158511,0.0001902,53.2167,158.3527,25.9271,53.0768,0.00059207,0.00083153,0.0,0 STARLINK-4287,1 53020U 22076AL  22233.25001157  .00083153  00000-0  59207-3 0  9996,2 53020  53.2167 158.3527 0001902  25.9271  53.0768 15.73158511  7536,6728.013000000001,91.536,351.158,348.599,0.0
53020.0,STARLINK-4287,PAYLOAD,2022-08-21 14:00:01,15.73226227,0.0001576999999999,53.2168,156.7012,25.2038,142.7302,-0.00028104,-0.00039921,0.0,0 STARLINK-4287,1 53020U 22076AL  22233.58334491 -.00039921  00000-0 -28104-3 0  9990,2 53020  53.2168 156.7012 0001577  25.2038 142.7302 15.73226227  1309,6727.82,91.532,350.746,348.624,0.0
53020.0,STARLINK-4287,PAYLOAD,2022-08-21 22:00:00,15.73208577,0.0001545,53.2171,155.0524,23.8679,233.0166,0.00011327,0.00015311,0.0,0 STARLINK-4287,1 53020U 22076AL  22233.91667824  .00015311  00000-0  11327-3 0  9990,2 53020  53.2171 155.0524 0001545  23.8679 233.0166 15.73208577  1303,6727.871,91.533,350.775,348.696,0.0
53020.0,STARLINK-4287,PAYLOAD,2022-08-22 12:00:00,15.73248453,0.0001681,53.2174,152.1657,26.3724,296.1418,-0.00059745,-0.00083815,0.0,0 STARLINK-4287,1 53020U 22076AL  22234.50001157 -.00083815  00000-0 -59745-3 0  9999,2 53020  53.2174 152.1657 0001681  26.3724 296.1418 15.73248453  1308,6727.757,91.53,350.75300000000016,348.491,0.0
53020.0,STARLINK-4287,PAYLOAD,2022-08-22 22:00:00,15.73212417,0.0001789,53.2174,150.1043,31.9996,131.6883,2.4198e-06,-2.81e-06,0.0,0 STARLINK-4287,1 53020U 22076AL  22234.91667824 -.00000281  00000-0  24198-5 0  9994,2 53020  53.2174 150.1043 0001789  31.9996 131.6883 15.73212417  7796,6727.86,91.532,350.92800000000005,348.521,0.0
53020.0,STARLINK-4287,PAYLOAD,2022-08-23 14:00:01,15.73233629,0.0001575,53.2169,146.8046,29.5604,312.0289,-0.00022879,-0.00032652,0.0,0 STARLINK-4287,1 53020U 22076AL  22235.58334491 -.00032652  00000-0 -22879-3 0  9999,2 53020  53.2169 146.8046 0001575  29.5604 312.0289 15.73233629  1301,6727.799,91.531,350.724,348.605,0.0
53020.0,STARLINK-4287,PAYLOAD,2022-08-23 22:00:01,15.73218871,0.0001624,53.2173,145.1561,26.7791,43.8283,-2.4907e-05,-4.117e-05,0.0,0 STARLINK-4287,1 53020U 22076AL  22235.91668981 -.00004117  00000-0 -24907-4 0  9990,2 53020  53.2173 145.1561 0001624  26.7791  43.8283 15.73218871  1306,6727.840999999999,91.532,350.7990000000001,348.61400000000015,0.0
53020.0,STARLINK-4287,PAYLOAD,2022-08-24 06:00:00,15.73200338,0.0001819,53.2174,143.5079,23.4098,136.0621,0.00038301,0.00053478,0.0,0 STARLINK-4287,1 53020U 22076AL  22236.25001157  .00053478  00000-0  38301-3 0  9998,2 53020  53.2174 143.5079 0001819  23.4098 136.0621 15.73200338  8007,6727.894,91.533,350.983,348.535,0.0
53020.0,STARLINK-4287,PAYLOAD,2022-08-24 14:00:01,15.73230763,0.0001668,53.2177,141.8564,30.213,218.2233,-0.00021053,-0.00030101,0.0,0 STARLINK-4287,1 53020U 22076AL  22236.58334491 -.00030101  00000-0 -21053-3 0  9990,2 53020  53.2177 141.8564 0001668  30.2130 218.2233 15.73230763  1308,6727.807,91.531,350.795,348.55,0.0
53020.0,STARLINK-4287,PAYLOAD,2022-08-24 22:00:00,15.73215832,0.000186,53.2176,140.2081,34.841,302.5458,-3.7049e-05,-5.821e-05,0.0,0 STARLINK-4287,1 53020U 22076AL  22236.91667824 -.00005821  00000-0 -37049-4 0  9990,2 53020  53.2176 140.2081 0001860  34.8410 302.5458 15.73215832  8111,6727.85,91.532,350.966,348.464,0.0
53020.0,STARLINK-4287,PAYLOAD,2022-08-25 14:00:01,15.73192062,0.0001588999999999,53.217,136.9082,31.5031,123.7559,4.5179e-06,1.4e-07,0.0,0 STARLINK-4287,1 53020U 22076AL  22237.58334491  .00000014  00000-0  45179-5 0  9996,2 53020  53.2170 136.9082 0001589  31.5031 123.7559 15.73192062  1307,6727.918000000002,91.534,350.852,348.714,0.0
